OBJECT_NAME,OBJECT_ID,EPOCH,MEAN_MOTION,ECCENTRICITY,INCLINATION,RA_OF_ASC_NODE,ARG_OF_PERICENTER,MEAN_ANOMALY,EPHEMERIS_TYPE,CLASSIFICATION_TYPE,NORAD_CAT_ID,ELEMENT_SET_NO,REV_AT_EPOCH,BSTAR,MEAN_MOTION_DOT,MEAN_MOTION_DDOT
STARLINK-37780,2026-122M,2026-06-13T06:00:02.000160,15.80762077,.00012962,97.2835,193.4979,61.6099,83.4467,0,U,69340,999,277,.67214111E-3,.130222E-2,0
STARLINK-37781,2026-122N,2026-06-13T06:00:02.000160,15.80819953,.0000704,97.2835,193.4932,72.3607,61.5639,0,U,69341,999,272,.50845468E-4,.961E-4,0
STARLINK-37782,2026-122P,2026-06-13T06:00:02.000160,15.85986329,.00014179,97.2827,193.5093,82.9346,90.1100,0,U,69342,999,272,-.58184311E-2,-.1259955E-1,0
STARLINK-37776,2026-122Q,2026-06-13T06:00:02.000160,15.86138360,.00014624,97.2827,193.5107,81.3580,96.0999,0,U,69343,999,272,-.57881764E-2,-.1262447E-1,0
STARLINK-37786,2026-122R,2026-06-13T06:00:02.000160,15.86619007,.00013683,97.2834,193.5161,85.5409,103.5669,0,U,69344,999,272,-.56240282E-2,-.1256524E-1,0
STARLINK-37785,2026-122S,2026-06-13T06:00:02.000160,15.86607828,.00013635,97.2831,193.5161,86.2545,103.6116,0,U,69345,999,272,-.56149854E-2,-.1254116E-1,0
STARLINK-37773,2026-122T,2026-06-13T06:00:02.000160,15.85802314,.00016343,97.2834,193.5199,91.4688,106.3406,0,U,69346,999,277,-.12023333E-1,-.2505902E-1,0
STARLINK-37744,2026-122U,2026-06-13T06:00:02.000160,15.86722868,.00018669,97.2835,193.5222,92.7805,110.5243,0,U,69347,999,272,-.11673824E-1,-.254004E-1,0
STARLINK-37775,2026-122V,2026-06-13T06:00:02.000160,15.84019818,.00010641,97.2840,193.5192,84.3465,111.0095,0,U,69348,999,272,-.36088335E-2,-.738567E-2,0
STARLINK-37777,2026-122W,2026-06-13T06:00:02.000160,15.83685064,.00018066,97.2843,193.5227,90.6422,111.0979,0,U,69349,999,272,-.12561179E-1,-.2383562E-1,0
STARLINK-37779,2026-122X,2026-06-13T06:00:02.000160,15.84366806,.00016723,97.2846,193.5238,78.1499,128.7564,0,U,69350,999,272,-.11223976E-1,-.2174273E-1,0
STARLINK-37549,2026-122Y,2026-06-13T06:00:02.000160,15.82994759,.00017721,97.2847,193.5198,92.1908,101.5868,0,U,69351,999,272,-.98234534E-2,-.1831162E-1,0
STARLINK-37778,2026-122Z,2026-06-13T06:00:02.000160,15.83999775,.00017514,97.2845,193.5281,88.8173,126.5953,0,U,69352,999,272,-.12715913E-1,-.2440097E-1,0
STARLINK-37651,2026-123A,2026-06-13T06:00:02.000160,15.81858470,.0000712,53.1588,261.5386,88.1348,257.2628,0,U,69353,999,251,-.70495357E-2,-.1284168E-1,0
STARLINK-37652,2026-123B,2026-06-13T06:00:02.000160,15.80862266,.0000741,53.1594,261.5514,111.2813,228.1879,0,U,69354,999,251,.20227079E-3,.39385E-3,0
STARLINK-37593,2026-123C,2026-06-13T06:00:02.000160,15.80815901,.00008491,53.1592,261.5405,105.5699,238.8631,0,U,69355,999,256,.63435055E-3,.126009E-2,0
STARLINK-37597,2026-123D,2026-06-13T06:00:02.000160,15.80838855,.0001332,53.1590,261.5212,88.8666,264.8381,0,U,69356,999,256,.41677095E-3,.82215E-3,0
STARLINK-37598,2026-123E,2026-06-13T06:00:02.000160,15.81656471,.00011793,53.1586,261.4975,93.3602,271.8608,0,U,69357,999,256,-.57862497E-2,-.1049743E-1,0
STARLINK-37602,2026-123F,2026-06-13T06:00:02.000160,15.81789116,.0001185,53.1589,261.4878,120.7943,249.2324,0,U,69358,999,256,-.67743734E-2,-.1236508E-1,0
STARLINK-37600,2026-123G,2026-06-13T06:00:02.000160,15.82939684,.00008147,53.1585,261.4559,68.7757,316.7420,0,U,69359,999,257,-.97305273E-2,-.1854778E-1,0
STARLINK-37599,2026-123H,2026-06-13T06:00:02.000160,15.85822570,.00010033,53.1578,261.3953,66.5824,348.0177,0,U,69360,999,251,-.87418376E-2,-.1908288E-1,0
STARLINK-37039,2026-123J,2026-06-13T06:00:02.000160,15.82684253,.00007912,53.1585,261.4345,78.6533,316.6334,0,U,69361,999,252,-.10106905E-1,-.189695E-1,0
STARLINK-37040,2026-123K,2026-06-13T06:00:02.000160,15.92235446,.00008675,53.1571,261.3163,66.5818,25.7772,0,U,69362,999,252,-.63340544E-2,-.2160343E-1,.12603139E-2
STARLINK-37582,2026-123L,2026-06-13T06:00:02.000160,15.84208511,.00008948,53.1581,261.3854,70.3302,348.9443,0,U,69363,999,252,-.95733405E-2,-.1928457E-1,0
STARLINK-37309,2026-123M,2026-06-13T06:00:02.000160,15.94438978,.0000945,53.1567,261.2581,69.8068,50.6612,0,U,69364,999,266,-.34786884E-2,-.1340903E-1,.53410906E-3
STARLINK-37436,2026-123N,2026-06-13T06:00:02.000160,15.95097222,.00010002,53.1569,261.2267,77.4757,57.9934,0,U,69365,999,266,-.46475109E-2,-.1847941E-1,.9691446E-3
STARLINK-37581,2026-123P,2026-06-13T06:00:02.000160,15.93265037,.00009776,53.1570,261.2267,76.5016,59.0284,0,U,69366,999,251,-.59218414E-2,-.2131921E-1,.12424295E-2
STARLINK-37683,2026-123Q,2026-06-13T06:00:02.000160,15.94697335,.0000921,53.1570,261.2082,74.9788,69.4059,0,U,69367,999,252,-.57193298E-2,-.2220631E-1,.13628792E-2
STARLINK-37687,2026-123R,2026-06-13T06:00:02.000160,15.94760127,.00010322,53.1569,261.1672,71.5009,92.5637,0,U,69368,999,252,-.5280367E-2,-.2058991E-1,.11820387E-2
