STARLINK-37780          
1 69340U 26122M   26164.25002315  .00130222  00000+0  67214-3 0  9994
2 69340  97.2835 193.4979 0001296  61.6099  83.4467 15.80762077  2770
STARLINK-37781          
1 69341U 26122N   26164.25002315  .00009610  00000+0  50845-4 0  9994
2 69341  97.2835 193.4932 0000704  72.3607  61.5639 15.80819953  2726
STARLINK-37782          
1 69342U 26122P   26164.25002315 -.01259955  00000+0 -58184-2 0  9999
2 69342  97.2827 193.5093 0001417  82.9346  90.1100 15.85986329  2724
STARLINK-37776          
1 69343U 26122Q   26164.25002315 -.01262447  00000+0 -57882-2 0  9994
2 69343  97.2827 193.5107 0001462  81.3580  96.0999 15.86138360  2720
STARLINK-37786          
1 69344U 26122R   26164.25002315 -.01256524  00000+0 -56240-2 0  9991
2 69344  97.2834 193.5161 0001368  85.5409 103.5669 15.86619007  2720
STARLINK-37785          
1 69345U 26122S   26164.25002315 -.01254116  00000+0 -56150-2 0  9997
2 69345  97.2831 193.5161 0001363  86.2545 103.6116 15.86607828  2728
STARLINK-37773          
1 69346U 26122T   26164.25002315 -.02505902  00000+0 -12023-1 0  9991
2 69346  97.2834 193.5199 0001634  91.4688 106.3406 15.85802314  2773
STARLINK-37744          
1 69347U 26122U   26164.25002315 -.02540040  00000+0 -11674-1 0  9995
2 69347  97.2835 193.5222 0001866  92.7805 110.5243 15.86722868  2721
STARLINK-37775          
1 69348U 26122V   26164.25002315 -.00738567  00000+0 -36088-2 0  9994
2 69348  97.2840 193.5192 0001064  84.3465 111.0095 15.84019818  2726
STARLINK-37777          
1 69349U 26122W   26164.25002315 -.02383562  00000+0 -12561-1 0  9997
2 69349  97.2843 193.5227 0001806  90.6422 111.0979 15.83685064  2728
STARLINK-37779          
1 69350U 26122X   26164.25002315 -.02174273  00000+0 -11224-1 0  9991
2 69350  97.2846 193.5238 0001672  78.1499 128.7564 15.84366806  2727
STARLINK-37549          
1 69351U 26122Y   26164.25002315 -.01831162  00000+0 -98235-2 0  9996
2 69351  97.2847 193.5198 0001772  92.1908 101.5868 15.82994759  2724
STARLINK-37778          
1 69352U 26122Z   26164.25002315 -.02440097  00000+0 -12716-1 0  9990
2 69352  97.2845 193.5281 0001751  88.8173 126.5953 15.83999775  2725
STARLINK-37651          
1 69353U 26123A   26164.25002315 -.01284168  00000+0 -70495-2 0  9995
2 69353  53.1588 261.5386 0000712  88.1348 257.2628 15.81858470  2518
STARLINK-37652          
1 69354U 26123B   26164.25002315  .00039385  00000+0  20227-3 0  9991
2 69354  53.1594 261.5514 0000741 111.2813 228.1879 15.80862266  2518
STARLINK-37593          
1 69355U 26123C   26164.25002315  .00126009  00000+0  63435-3 0  9990
2 69355  53.1592 261.5405 0000849 105.5699 238.8631 15.80815901  2566
STARLINK-37597          
1 69356U 26123D   26164.25002315  .00082215  00000+0  41677-3 0  9995
2 69356  53.1590 261.5212 0001332  88.8666 264.8381 15.80838855  2560
STARLINK-37598          
1 69357U 26123E   26164.25002315 -.01049743  00000+0 -57862-2 0  9990
2 69357  53.1586 261.4975 0001179  93.3602 271.8608 15.81656471  2564
STARLINK-37602          
1 69358U 26123F   26164.25002315 -.01236508  00000+0 -67744-2 0  9998
2 69358  53.1589 261.4878 0001185 120.7943 249.2324 15.81789116  2567
STARLINK-37600          
1 69359U 26123G   26164.25002315 -.01854778  00000+0 -97305-2 0  9990
2 69359  53.1585 261.4559 0000814  68.7757 316.7420 15.82939684  2578
STARLINK-37599          
1 69360U 26123H   26164.25002315 -.01908288  00000+0 -87418-2 0  9992
2 69360  53.1578 261.3953 0001003  66.5824 348.0177 15.85822570  2510
STARLINK-37039          
1 69361U 26123J   26164.25002315 -.01896950  00000+0 -10107-1 0  9995
2 69361  53.1585 261.4345 0000791  78.6533 316.6334 15.82684253  2527
STARLINK-37040          
1 69362U 26123K   26164.25002315 -.02160343  12603-2 -63341-2 0  9991
2 69362  53.1571 261.3163 0000867  66.5818  25.7772 15.92235446  2527
STARLINK-37582          
1 69363U 26123L   26164.25002315 -.01928457  00000+0 -95733-2 0  9994
2 69363  53.1581 261.3854 0000894  70.3302 348.9443 15.84208511  2526
STARLINK-37309          
1 69364U 26123M   26164.25002315 -.01340903  53411-3 -34787-2 0  9999
2 69364  53.1567 261.2581 0000945  69.8068  50.6612 15.94438978  2669
STARLINK-37436          
1 69365U 26123N   26164.25002315 -.01847941  96914-3 -46475-2 0  9996
2 69365  53.1569 261.2267 0001000  77.4757  57.9934 15.95097222  2667
STARLINK-37581          
1 69366U 26123P   26164.25002315 -.02131921  12424-2 -59218-2 0  9994
2 69366  53.1570 261.2267 0000977  76.5016  59.0284 15.93265037  2514
STARLINK-37683          
1 69367U 26123Q   26164.25002315 -.02220631  13629-2 -57193-2 0  9990
2 69367  53.1570 261.2082 0000921  74.9788  69.4059 15.94697335  2524
STARLINK-37687          
1 69368U 26123R   26164.25002315 -.02058991  11820-2 -52804-2 0  9994
2 69368  53.1569 261.1672 0001032  71.5009  92.5637 15.94760127  2529
